{
  "type": "FeatureCollection",
  "name": "Ahmedabad_Sample_Wards_Risk_Layer",
  "crs": { "type": "name", "properties": { "name": "urn:ogc:def:crs:OGC:1.3:CRS84" } },
  "features": [
    {
      "type": "Feature",
      "properties": {
        "ward_id": "AHM-W01",
        "ward_name": "Danilimda / Jamalpur",
        "zone": "South Zone",
        "district": "Ahmedabad",
        "area_sqkm": 4.0,
        "centroid_lat": 23.0030,
        "centroid_lon": 72.5850
      },
      "geometry": {
        "type": "Polygon",
        "coordinates": [[[72.572, 22.990], [72.598, 22.990], [72.598, 23.016], [72.572, 23.016], [72.572, 22.990]]]
      }
    },
    {
      "type": "Feature",
      "properties": {
        "ward_id": "AHM-W02",
        "ward_name": "Khadia / Old City",
        "zone": "Central Zone",
        "district": "Ahmedabad",
        "area_sqkm": 2.5,
        "centroid_lat": 23.0240,
        "centroid_lon": 72.5910
      },
      "geometry": {
        "type": "Polygon",
        "coordinates": [[[72.580, 23.015], [72.602, 23.015], [72.602, 23.033], [72.580, 23.033], [72.580, 23.015]]]
      }
    },
    {
      "type": "Feature",
      "properties": {
        "ward_id": "AHM-W03",
        "ward_name": "Odhav Industrial Estate",
        "zone": "East Zone",
        "district": "Ahmedabad",
        "area_sqkm": 7.0,
        "centroid_lat": 23.0320,
        "centroid_lon": 72.6620
      },
      "geometry": {
        "type": "Polygon",
        "coordinates": [[[72.645, 23.018], [72.680, 23.018], [72.680, 23.045], [72.645, 23.045], [72.645, 23.018]]]
      }
    },
    {
      "type": "Feature",
      "properties": {
        "ward_id": "AHM-W04",
        "ward_name": "Maninagar",
        "zone": "South Zone",
        "district": "Ahmedabad",
        "area_sqkm": 5.0,
        "centroid_lat": 22.9970,
        "centroid_lon": 72.6050
      },
      "geometry": {
        "type": "Polygon",
        "coordinates": [[[72.592, 22.985], [72.618, 22.985], [72.618, 23.010], [72.592, 23.010], [72.592, 22.985]]]
      }
    },
    {
      "type": "Feature",
      "properties": {
        "ward_id": "AHM-W05",
        "ward_name": "Bodakdev / SG Highway",
        "zone": "New West Zone",
        "district": "Ahmedabad",
        "area_sqkm": 8.0,
        "centroid_lat": 23.0410,
        "centroid_lon": 72.5120
      },
      "geometry": {
        "type": "Polygon",
        "coordinates": [[[72.495, 23.025], [72.530, 23.025], [72.530, 23.058], [72.495, 23.058], [72.495, 23.025]]]
      }
    },
    {
      "type": "Feature",
      "properties": {
        "ward_id": "AHM-W06",
        "ward_name": "Sabarmati / Chandkheda",
        "zone": "North West Zone",
        "district": "Ahmedabad",
        "area_sqkm": 6.5,
        "centroid_lat": 23.0820,
        "centroid_lon": 72.5850
      },
      "geometry": {
        "type": "Polygon",
        "coordinates": [[[72.568, 23.065], [72.605, 23.065], [72.605, 23.098], [72.568, 23.098], [72.568, 23.065]]]
      }
    },
    {
      "type": "Feature",
      "properties": {
        "ward_id": "AHM-W07",
        "ward_name": "Naroda GIDC",
        "zone": "North Zone",
        "district": "Ahmedabad",
        "area_sqkm": 7.0,
        "centroid_lat": 23.0710,
        "centroid_lon": 72.6500
      },
      "geometry": {
        "type": "Polygon",
        "coordinates": [[[72.630, 23.052], [72.670, 23.052], [72.670, 23.088], [72.630, 23.088], [72.630, 23.052]]]
      }
    },
    {
      "type": "Feature",
      "properties": {
        "ward_id": "AHM-W08",
        "ward_name": "Sarkhej / Juhapura",
        "zone": "South West Zone",
        "district": "Ahmedabad",
        "area_sqkm": 5.5,
        "centroid_lat": 22.9850,
        "centroid_lon": 72.5080
      },
      "geometry": {
        "type": "Polygon",
        "coordinates": [[[72.490, 22.968], [72.528, 22.968], [72.528, 23.002], [72.490, 23.002], [72.490, 22.968]]]
      }
    }
  ]
}
