{
  "type": "FeatureCollection",
  "name": "Bhubaneswar_Sample_Wards_Risk_Layer",
  "crs": { "type": "name", "properties": { "name": "urn:ogc:def:crs:OGC:1.3:CRS84" } },
  "features": [
    {
      "type": "Feature",
      "properties": {
        "ward_id": "BHU-W01",
        "ward_name": "Old Town / Lingaraj",
        "zone": "South-East Zone",
        "district": "Khordha",
        "area_sqkm": 3.8,
        "centroid_lat": 20.2400,
        "centroid_lon": 85.8340
      },
      "geometry": {
        "type": "Polygon",
        "coordinates": [[[85.820, 20.228], [85.848, 20.228], [85.848, 20.252], [85.820, 20.252], [85.820, 20.228]]]
      }
    },
    {
      "type": "Feature",
      "properties": {
        "ward_id": "BHU-W02",
        "ward_name": "Rasulgarh / Mancheswar Industrial",
        "zone": "North-East Zone",
        "district": "Khordha",
        "area_sqkm": 6.5,
        "centroid_lat": 20.3050,
        "centroid_lon": 85.8650
      },
      "geometry": {
        "type": "Polygon",
        "coordinates": [[[85.848, 20.290], [85.882, 20.290], [85.882, 20.320], [85.848, 20.320], [85.848, 20.290]]]
      }
    },
    {
      "type": "Feature",
      "properties": {
        "ward_id": "BHU-W03",
        "ward_name": "Nayapalli / IRC Village",
        "zone": "Central Zone",
        "district": "Khordha",
        "area_sqkm": 4.5,
        "centroid_lat": 20.2980,
        "centroid_lon": 85.8150
      },
      "geometry": {
        "type": "Polygon",
        "coordinates": [[[85.800, 20.285], [85.830, 20.285], [85.830, 20.310], [85.800, 20.310], [85.800, 20.285]]]
      }
    },
    {
      "type": "Feature",
      "properties": {
        "ward_id": "BHU-W04",
        "ward_name": "Saheed Nagar / Unit-9",
        "zone": "Central Zone",
        "district": "Khordha",
        "area_sqkm": 3.2,
        "centroid_lat": 20.2880,
        "centroid_lon": 85.8450
      },
      "geometry": {
        "type": "Polygon",
        "coordinates": [[[85.832, 20.275], [85.858, 20.275], [85.858, 20.300], [85.832, 20.300], [85.832, 20.275]]]
      }
    },
    {
      "type": "Feature",
      "properties": {
        "ward_id": "BHU-W05",
        "ward_name": "Chandrasekharpur / Infocity",
        "zone": "North Zone",
        "district": "Khordha",
        "area_sqkm": 8.0,
        "centroid_lat": 20.3380,
        "centroid_lon": 85.8150
      },
      "geometry": {
        "type": "Polygon",
        "coordinates": [[[85.795, 20.320], [85.835, 20.320], [85.835, 20.355], [85.795, 20.355], [85.795, 20.320]]]
      }
    },
    {
      "type": "Feature",
      "properties": {
        "ward_id": "BHU-W06",
        "ward_name": "Khandagiri / Ghatikia",
        "zone": "South-West Zone",
        "district": "Khordha",
        "area_sqkm": 7.5,
        "centroid_lat": 20.2600,
        "centroid_lon": 85.7800
      },
      "geometry": {
        "type": "Polygon",
        "coordinates": [[[85.760, 20.245], [85.800, 20.245], [85.800, 20.275], [85.760, 20.275], [85.760, 20.245]]]
      }
    },
    {
      "type": "Feature",
      "properties": {
        "ward_id": "BHU-W07",
        "ward_name": "Patia / KIIT Area",
        "zone": "North Zone",
        "district": "Khordha",
        "area_sqkm": 6.8,
        "centroid_lat": 20.3600,
        "centroid_lon": 85.8250
      },
      "geometry": {
        "type": "Polygon",
        "coordinates": [[[85.805, 20.345], [85.845, 20.345], [85.845, 20.375], [85.805, 20.375], [85.805, 20.345]]]
      }
    },
    {
      "type": "Feature",
      "properties": {
        "ward_id": "BHU-W08",
        "ward_name": "Unit-1 / Capital Hospital Area",
        "zone": "Central Administrative Zone",
        "district": "Khordha",
        "area_sqkm": 4.0,
        "centroid_lat": 20.2680,
        "centroid_lon": 85.8280
      },
      "geometry": {
        "type": "Polygon",
        "coordinates": [[[85.812, 20.255], [85.842, 20.255], [85.842, 20.280], [85.812, 20.280], [85.812, 20.255]]]
      }
    }
  ]
}
